{
  "type": "FeatureCollection",
  "features": [
    {
      "type": "Feature",
      "properties": {
        "norad_id": 30405,
        "name": "FENGYUN 1C DEB",
        "group": "fengyun-1c-debris",
        "lat": 13.15646843598666,
        "lon": 80.23947250385466,
        "alt_km": 822.6855418464493,
        "timestamp": "2025-12-14T07:33:19.753836+00:00",
        "meta_object_name": "FENGYUN 1C DEB",
        "meta_object_id": "1999-025ADU",
        "meta_epoch": "2025-12-13T13:04:45.046848",
        "meta_mean_motion": 14.28931858,
        "meta_eccentricity": 0.00513879,
        "meta_inclination": 98.7935,
        "meta_ra_of_asc_node": 81.5369,
        "meta_arg_of_pericenter": 151.514,
        "meta_mean_anomaly": 224.3468,
        "meta_ephemeris_type": 0,
        "meta_classification_type": "U",
        "meta_norad_cat_id": 30405,
        "meta_element_set_no": 999,
        "meta_rev_at_epoch": 97407,
        "meta_bstar": 0.0028481407,
        "meta_mean_motion_dot": 7.26e-05,
        "meta_mean_motion_ddot": 0,
        "tle_line1": "1 30405U 99025ADU 25347.54496582  .00007260  00000+0  28481-2 0  9990",
        "tle_line2": "2 30405  98.7935  81.5369 0051387 151.5140 224.3468 14.28931858974073"
      },
      "geometry": {
        "type": "Point",
        "coordinates": [
          80.23947250385466,
          13.15646843598666
        ]
      }
    },
    {
      "type": "Feature",
      "properties": {
        "norad_id": 30406,
        "name": "FENGYUN 1C DEB",
        "group": "fengyun-1c-debris",
        "lat": -60.5778854091032,
        "lon": -105.6059092643889,
        "alt_km": 928.437264639686,
        "timestamp": "2025-12-14T07:33:19.753847+00:00",
        "meta_object_name": "FENGYUN 1C DEB",
        "meta_object_id": "1999-025ADV",
        "meta_epoch": "2025-12-13T16:12:20.995200",
        "meta_mean_motion": 13.59217344,
        "meta_eccentricity": 0.02831882,
        "meta_inclination": 98.6203,
        "meta_ra_of_asc_node": 238.2281,
        "meta_arg_of_pericenter": 357.4149,
        "meta_mean_anomaly": 55.7258,
        "meta_ephemeris_type": 0,
        "meta_classification_type": "U",
        "meta_norad_cat_id": 30406,
        "meta_element_set_no": 999,
        "meta_rev_at_epoch": 93179,
        "meta_bstar": 0.0027986108,
        "meta_mean_motion_dot": 2.646e-05,
        "meta_mean_motion_ddot": 0,
        "tle_line1": "1 30406U 99025ADV 25347.67524300  .00002646  00000+0  27986-2 0  9997",
        "tle_line2": "2 30406  98.6203 238.2281 0283188 357.4149  55.7258 13.59217344931792"
      },
      "geometry": {
        "type": "Point",
        "coordinates": [
          -105.6059092643889,
          -60.5778854091032
        ]
      }
    },
    {
      "type": "Feature",
      "properties": {
        "norad_id": 30409,
        "name": "FENGYUN 1C DEB",
        "group": "fengyun-1c-debris",
        "lat": -65.48455434161679,
        "lon": -5.32705697330466,
        "alt_km": 840.6425849381085,
        "timestamp": "2025-12-14T07:33:19.753857+00:00",
        "meta_object_name": "FENGYUN 1C DEB",
        "meta_object_id": "1999-025ADY",
        "meta_epoch": "2025-12-13T04:46:10.054272",
        "meta_mean_motion": 14.03735902,
        "meta_eccentricity": 0.01678291,
        "meta_inclination": 98.4733,
        "meta_ra_of_asc_node": 334.5533,
        "meta_arg_of_pericenter": 4.2714,
        "meta_mean_anomaly": 53.7061,
        "meta_ephemeris_type": 0,
        "meta_classification_type": "U",
        "meta_norad_cat_id": 30409,
        "meta_element_set_no": 999,
        "meta_rev_at_epoch": 96436,
        "meta_bstar": 0.0014907019,
        "meta_mean_motion_dot": 2.618e-05,
        "meta_mean_motion_ddot": 0,
        "tle_line1": "1 30409U 99025ADY 25347.19872748  .00002618  00000+0  14907-2 0  9997",
        "tle_line2": "2 30409  98.4733 334.5533 0167829   4.2714  53.7061 14.03735902964363"
      },
      "geometry": {
        "type": "Point",
        "coordinates": [
          -5.32705697330466,
          -65.48455434161679
        ]
      }
    },
    {
      "type": "Feature",
      "properties": {
        "norad_id": 30411,
        "name": "FENGYUN 1C DEB",
        "group": "fengyun-1c-debris",
        "lat": -4.330168689458918,
        "lon": 78.19376639350318,
        "alt_km": 857.4737027158753,
        "timestamp": "2025-12-14T07:33:19.753867+00:00",
        "meta_object_name": "FENGYUN 1C DEB",
        "meta_object_id": "1999-025AEA",
        "meta_epoch": "2025-12-13T05:06:25.888032",
        "meta_mean_motion": 14.07651236,
        "meta_eccentricity": 0.01227985,
        "meta_inclination": 98.5799,
        "meta_ra_of_asc_node": 257.8016,
        "meta_arg_of_pericenter": 105.3245,
        "meta_mean_anomaly": 256.1534,
        "meta_ephemeris_type": 0,
        "meta_classification_type": "U",
        "meta_norad_cat_id": 30411,
        "meta_element_set_no": 999,
        "meta_rev_at_epoch": 95990,
        "meta_bstar": 0.0023338116,
        "meta_mean_motion_dot": 4.186e-05,
        "meta_mean_motion_ddot": 0,
        "tle_line1": "1 30411U 99025AEA 25347.21279963  .00004186  00000+0  23338-2 0  9993",
        "tle_line2": "2 30411  98.5799 257.8016 0122798 105.3245 256.1534 14.07651236959909"
      },
      "geometry": {
        "type": "Point",
        "coordinates": [
          78.19376639350318,
          -4.330168689458918
        ]
      }
    },
    {
      "type": "Feature",
      "properties": {
        "norad_id": 30413,
        "name": "FENGYUN 1C DEB",
        "group": "fengyun-1c-debris",
        "lat": -2.0561394100630572,
        "lon": -137.74391642714107,
        "alt_km": 812.8233732859353,
        "timestamp": "2025-12-14T07:33:19.753878+00:00",
        "meta_object_name": "FENGYUN 1C DEB",
        "meta_object_id": "1999-025AEC",
        "meta_epoch": "2025-12-13T13:25:54.605856",
        "meta_mean_motion": 14.32547763,
        "meta_eccentricity": 0.00451432,
        "meta_inclination": 102.0625,
        "meta_ra_of_asc_node": 220.7693,
        "meta_arg_of_pericenter": 214.588,
        "meta_mean_anomaly": 210.6296,
        "meta_ephemeris_type": 0,
        "meta_classification_type": "U",
        "meta_norad_cat_id": 30413,
        "meta_element_set_no": 999,
        "meta_rev_at_epoch": 97151,
        "meta_bstar": 0.0024326319,
        "meta_mean_motion_dot": 6.608e-05,
        "meta_mean_motion_ddot": 0,
        "tle_line1": "1 30413U 99025AEC 25347.55965979  .00006608  00000+0  24326-2 0  9990",
        "tle_line2": "2 30413 102.0625 220.7693 0045143 214.5880 210.6296 14.32547763971514"
      },
      "geometry": {
        "type": "Point",
        "coordinates": [
          -137.74391642714107,
          -2.0561394100630572
        ]
      }
    },
    {
      "type": "Feature",
      "properties": {
        "norad_id": 30414,
        "name": "FENGYUN 1C DEB",
        "group": "fengyun-1c-debris",
        "lat": 80.17214555530984,
        "lon": 33.04154601442674,
        "alt_km": 770.4059121773571,
        "timestamp": "2025-12-14T07:33:19.753888+00:00",
        "meta_object_name": "FENGYUN 1C DEB",
        "meta_object_id": "1999-025AED",
        "meta_epoch": "2025-12-13T09:20:59.126208",
        "meta_mean_motion": 14.34177416,
        "meta_eccentricity": 0.00583461,
        "meta_inclination": 99.0804,
        "meta_ra_of_asc_node": 144.672,
        "meta_arg_of_pericenter": 186.9383,
        "meta_mean_anomaly": 173.0999,
        "meta_ephemeris_type": 0,
        "meta_classification_type": "U",
        "meta_norad_cat_id": 30414,
        "meta_element_set_no": 999,
        "meta_rev_at_epoch": 97096,
        "meta_bstar": 0.0043752969,
        "meta_mean_motion_dot": 0.00012469,
        "meta_mean_motion_ddot": 0,
        "tle_line1": "1 30414U 99025AED 25347.38957322  .00012469  00000+0  43753-2 0  9992",
        "tle_line2": "2 30414  99.0804 144.6720 0058346 186.9383 173.0999 14.34177416970969"
      },
      "geometry": {
        "type": "Point",
        "coordinates": [
          33.04154601442674,
          80.17214555530984
        ]
      }
    },
    {
      "type": "Feature",
      "properties": {
        "norad_id": 30415,
        "name": "FENGYUN 1C DEB",
        "group": "fengyun-1c-debris",
        "lat": 13.863646822956985,
        "lon": -129.03052524697645,
        "alt_km": 1028.9006669330001,
        "timestamp": "2025-12-14T07:33:19.753898+00:00",
        "meta_object_name": "FENGYUN 1C DEB",
        "meta_object_id": "1999-025AEE",
        "meta_epoch": "2025-12-13T02:48:46.573344",
        "meta_mean_motion": 13.68936428,
        "meta_eccentricity": 0.02387472,
        "meta_inclination": 99.646,
        "meta_ra_of_asc_node": 47.3652,
        "meta_arg_of_pericenter": 268.3014,
        "meta_mean_anomaly": 121.2911,
        "meta_ephemeris_type": 0,
        "meta_classification_type": "U",
        "meta_norad_cat_id": 30415,
        "meta_element_set_no": 999,
        "meta_rev_at_epoch": 93883,
        "meta_bstar": 0.001722423,
        "meta_mean_motion_dot": 1.767e-05,
        "meta_mean_motion_ddot": 0,
        "tle_line1": "1 30415U 99025AEE 25347.11720571  .00001767  00000+0  17224-2 0  9991",
        "tle_line2": "2 30415  99.6460  47.3652 0238747 268.3014 121.2911 13.68936428938839"
      },
      "geometry": {
        "type": "Point",
        "coordinates": [
          -129.03052524697645,
          13.863646822956985
        ]
      }
    }
  ]
}